{
	"observations": [
		{
			"id": "1559949406124-46494-0",
			"name": "NORBI",
			"satelliteId": "46494",
			"tle": {
				"line1": "NORBI",
				"line2": "1 46494U 20068J   22099.92133883  .00004000  00000+0  28978-3 0  9992",
				"line3": "2 46494  97.7199  41.3905 0017958 151.0787 209.1441 15.04425920 83893",
				"updated": 1559942730784,
				"source": "localhost"
			},
			"start": 1559949406124,
			"end": 1559949940009,
			"status": "NEW",
			"numberOfDecodedPackets": 0,
			"hasData": false
		},
		{
			"id": "1559949406124-46494-1",
			"name": "NORBI",
			"satelliteId": "46494",
			"tle": {
				"line1": "NORBI",
				"line2": "1 46494U 20068J   22099.92133883  .00004000  00000+0  28978-3 0  9992",
				"line3": "2 46494  97.7199  41.3905 0017958 151.0787 209.1441 15.04425920 83893",
				"updated": 1559942730784,
				"source": "localhost"
			},
			"start": 1559949406124,
			"end": 1559949940009,
			"status": "NEW",
			"numberOfDecodedPackets": 0,
			"hasData": false
		},
		{
			"id": "1559960645848-33591-0",
			"name": "NOAA 19",
			"satelliteId": "33591",
			"tle": {
				"line1": "556e58f9-a6c9-4da2-96a9-9d45f55c34ad",
				"line2": "1 33591U 09005A   17288.43141343  .00000063  00000-0  34290-4 0  9995",
				"line3": "2 33591  99.1077 257.0461 0013872 296.1360  63.8880 14.12217483447628",
				"updated": 1559942730784,
				"source": "localhost"
			},
			"start": 1559960645848,
			"end": 1559961342616,
			"status": "NEW",
			"numberOfDecodedPackets": 0,
			"hasData": false
		},
		{
			"id": "1559966702274-33591-0",
			"name": "NOAA 19",
			"satelliteId": "33591",
			"tle": {
				"line1": "556e58f9-a6c9-4da2-96a9-9d45f55c34ad",
				"line2": "1 33591U 09005A   17288.43141343  .00000063  00000-0  34290-4 0  9995",
				"line3": "2 33591  99.1077 257.0461 0013872 296.1360  63.8880 14.12217483447628",
				"updated": 1559942730784,
				"source": "localhost"
			},
			"start": 1559966702274,
			"end": 1559967355239,
			"status": "NEW",
			"numberOfDecodedPackets": 0,
			"hasData": false
		},
		{
			"id": "1559969016026-25338-0",
			"name": "NOAA 15",
			"satelliteId": "25338",
			"tle": {
				"line1": "eedfe24e-6fa6-4466-ac16-f6086d1a0333",
				"line2": "1 25338U 98030A   17288.49529043  .00000057  00000-0  23836-4 0  9991",
				"line3": "2 25338  98.7843 299.6383 0010164 216.8147 143.2938 14.25820166 10144",
				"updated": 1559942730784,
				"source": "localhost"
			},
			"start": 1559969016026,
			"end": 1559969693274,
			"status": "NEW",
			"numberOfDecodedPackets": 0,
			"hasData": false
		},
		{
			"id": "1559942730784",
			"name": "AAUSAT 4",
			"satelliteId": "41460",
			"tle": {
				"line1": "AAUSAT 4",
				"line2": "1 41460U 16025E   22114.24237288  .00023891  00000+0  95344-3 0  9995",
				"line3": "2 41460  98.1778 281.1813 0131168  71.2285 290.3188 15.17490244329716",
				"updated": 0
			},
			"start": 1559942730839,
			"end": 1559942731040,
			"status": "UPLOADED",
			"numberOfDecodedPackets": 1,
			"hasData": true
		}
	],
	"basestation": {
		"lat": 56.189,
		"lng": 38.174
	}
}
